ORBCOMM FM37 [-]        
1 33064U 08031E   23314.50835569  .00002780  00000+0  43489-3 0  9999
2 33064  48.4402 233.0681 0005757  32.2412 138.2204 14.75397353827599
ORBCOMM FM40 [-]        
1 33065U 08031F   23314.51807495  .00003156  00000+0  47753-3 0  9994
2 33065  48.4425 223.9952 0007072  41.8328 128.4835 14.76492661827611
VESSELSAT 1 [-]         
1 37840U 11058C   23314.55675063  .00000474  00000+0  11467-3 0  9993
2 37840  19.9632  30.6703 0013540 237.0248 122.8854 14.11081924623857
ORBCOMM FM109 [+]       
1 40086U 14040A   23314.56138748  .00001541  00000+0  38388-3 0  9995
2 40086  47.0032 252.6350 0001335 163.9892 196.1035 14.56079788495805
ORBCOMM FM107 [+]       
1 40087U 14040B   23314.52694381  .00001621  00000+0  40170-3 0  9993
2 40087  47.0049 253.7338 0000707  96.3853 263.7113 14.56085784495878
ORBCOMM FM106 [-]       
1 40088U 14040C   23314.77321085  .00002105  00000+0  41043-3 0  9997
2 40088  47.0582 118.9538 0018899 237.7007 122.2052 14.66219222497834
ORBCOMM FM111 [-]       
1 40089U 14040D   23314.55279607  .00003578  00000+0  48607-3 0  9994
2 40089  47.0057  42.0685 0034342 284.6203  75.0885 14.80353506503446
ORBCOMM FM104 [-]       
1 40090U 14040E   23314.31564451  .00001526  00000+0  39216-3 0  9991
2 40090  47.0061 281.6479 0016706  53.2445 306.9970 14.54620664495418
